ONEWEB-0415             
1 51624U 22012C   25220.09664739  .00000144  00000+0  37688-3 0  9993
2 51624  87.8791  98.7184 0001554  69.7098 290.4196 13.10376846169568
ONEWEB-0416             
1 51625U 22012D   25220.10827702  .00000577  00000+0  16175-2 0  9994
2 51625  87.8792  98.7348 0001716  78.6775 281.4545 13.10374914169611
ONEWEB-0422             
1 51626U 22012E   25219.61101916  .00000119  00000+0  27385-3 0  9999
2 51626  87.9034  68.2522 0002338  72.0820 288.0566 13.17648478173794
ONEWEB-0423             
1 51627U 22012F   25219.60427140  .00000044  00000+0  78983-4 0  9997
2 51627  87.9037  68.2616 0001874  85.3811 274.7535 13.17648262172409
ONEWEB-0425             
1 51628U 22012G   25220.11824046  .00000709  00000+0  19939-2 0  9994
2 51628  87.8788  98.7025 0001850  89.2742 270.8597 13.10372369169613
ONEWEB-0428             
1 51629U 22012H   25220.09830977  .00000166  00000+0  43942-3 0  9991
2 51629  87.8793  98.7281 0001847  72.5576 287.5753 13.10376858169560
ONEWEB-0431             
1 51630U 22012J   25219.68650821 -.00000504  00000+0 -14809-2 0  9991
2 51630  87.8790  98.7807 0001636  56.8323 303.2962 13.10372870169573
ONEWEB-0434             
1 51631U 22012K   25220.42698911  .00000565  00000+0  15811-2 0  9997
2 51631  87.8789  98.6755 0002052  97.2420 262.8940 13.10371148169655
